*******************************************************************************
Ephemeris / WWW_USER Tue Mar 27 20:00:59 2018 Pasadena, USA      / Horizons    
*******************************************************************************
Target body name: Uranus Barycenter (7)           {source: DE431mx}
Center body name: Solar System Barycenter (0)     {source: DE431mx}
Center-site name: BODY CENTER
*******************************************************************************
Start time      : A.D. 2000-Jan-01 00:00:00.0000 TDB
Stop  time      : A.D. 2010-Jan-01 00:00:00.0000 TDB
Step-size       : 7200 minutes
*******************************************************************************
Center geodetic : 0.00000000,0.00000000,0.0000000 {E-lon(deg),Lat(deg),Alt(km)}
Center cylindric: 0.00000000,0.00000000,0.0000000 {E-lon(deg),Dxy(km),Dz(km)}
Center radii    : (undefined)                                                  
Output units    : AU-D                                                         
Output type     : GEOMETRIC cartesian states
Output format   : 2 (position and velocity)
Reference frame : ICRF/J2000.0                                                 
Coordinate systm: Ecliptic and Mean Equinox of Reference Epoch                 
*******************************************************************************
JDTDB
   X     Y     Z
   VX    VY    VZ
*******************************************************************************
$$SOE
2451754.500000000 = A.D. 2000-Jul-29 00:00:00.0000 TDB 
   1.497491178454096E+01 -1.316761511607426E+01 -2.429473108982594E-01
   2.568283687939711E-03  2.770689330074239E-03 -2.298110264718221E-05
2451759.500000000 = A.D. 2000-Aug-03 00:00:00.0000 TDB 
   1.498774621077784E+01 -1.315375552687008E+01 -2.430621029371961E-01
   2.565486441275673E-03  2.773145889736856E-03 -2.293570990361935E-05
2451764.500000000 = A.D. 2000-Aug-08 00:00:00.0000 TDB 
   1.500056664530052E+01 -1.313988366179681E+01 -2.431766679670941E-01
   2.562687002695088E-03  2.775599677453393E-03 -2.289029903909738E-05
2451769.500000000 = A.D. 2000-Aug-13 00:00:00.0000 TDB 
   1.501337307715597E+01 -1.312599953471805E+01 -2.432910058974527E-01
   2.559885374823459E-03  2.778050691669664E-03 -2.284487009411948E-05
2451774.500000000 = A.D. 2000-Aug-18 00:00:00.0000 TDB 
   1.502616549540431E+01 -1.311210315950520E+01 -2.434051166379702E-01
   2.557081560287886E-03  2.780498930833022E-03 -2.279942310935729E-05
2451779.500000000 = A.D. 2000-Aug-23 00:00:00.0000 TDB 
   1.503894388911879E+01 -1.309819455003739E+01 -2.435190000985477E-01
   2.554275561716092E-03  2.782944393392623E-03 -2.275395812545106E-05
2451784.500000000 = A.D. 2000-Aug-28 00:00:00.0000 TDB 
   1.505170824738580E+01 -1.308427372020153E+01 -2.436326561892931E-01
   2.551467381736296E-03  2.785387077799439E-03 -2.270847518299114E-05
2451789.500000000 = A.D. 2000-Sep-02 00:00:00.0000 TDB 
   1.506445855930486E+01 -1.307034068389223E+01 -2.437460848205145E-01
   2.548657022977212E-03  2.787826982506258E-03 -2.266297432251775E-05
2451794.500000000 = A.D. 2000-Sep-07 00:00:00.0000 TDB 
   1.507719481398865E+01 -1.305639545501187E+01 -2.438592859027225E-01
   2.545844488068118E-03  2.790264105967962E-03 -2.261745558462764E-05
2451799.500000000 = A.D. 2000-Sep-12 00:00:00.0000 TDB 
   1.508991700056300E+01 -1.304243804747053E+01 -2.439722593466331E-01
   2.543029779638503E-03  2.792698446642232E-03 -2.257191901017203E-05
2451804.500000000 = A.D. 2000-Sep-17 00:00:00.0000 TDB 
   1.510262510816688E+01 -1.302846847518600E+01 -2.440850050631639E-01
   2.540212900318846E-03  2.795130002988674E-03 -2.252636463980154E-05
2451809.500000000 = A.D. 2000-Sep-22 00:00:00.0000 TDB 
   1.511531912595242E+01 -1.301448675208376E+01 -2.441975229634382E-01
   2.537393852741109E-03  2.797558773469177E-03 -2.248079251422527E-05
2451814.500000000 = A.D. 2000-Sep-27 00:00:00.0000 TDB 
   1.512799904308492E+01 -1.300049289209698E+01 -2.443098129587825E-01
   2.534572639538518E-03  2.799984756547687E-03 -2.243520267414875E-05
2451819.500000000 = A.D. 2000-Oct-02 00:00:00.0000 TDB 
   1.514066484874283E+01 -1.298648690916651E+01 -2.444218749607233E-01
   2.531749263345554E-03  2.802407950690214E-03 -2.238959516027608E-05
2451824.500000000 = A.D. 2000-Oct-07 00:00:00.0000 TDB 
   1.515331653211778E+01 -1.297246881724085E+01 -2.445337088809967E-01
   2.528923726797958E-03  2.804828354364831E-03 -2.234397001330866E-05
2451829.500000000 = A.D. 2000-Oct-12 00:00:00.0000 TDB 
   1.516595408241461E+01 -1.295843863027619E+01 -2.446453146315363E-01
   2.526096032532749E-03  2.807245966040945E-03 -2.229832727398229E-05
2451834.500000000 = A.D. 2000-Oct-17 00:00:00.0000 TDB 
   1.517857748885131E+01 -1.294439636223633E+01 -2.447566921244838E-01
   2.523266183188262E-03  2.809660784189588E-03 -2.225266698306108E-05
2451839.500000000 = A.D. 2000-Oct-22 00:00:00.0000 TDB 
   1.519118674065910E+01 -1.293034202709272E+01 -2.448678412721824E-01
   2.520434181405049E-03  2.812072807283425E-03 -2.220698918121798E-05
2451844.500000000 = A.D. 2000-Oct-27 00:00:00.0000 TDB 
   1.520378182708236E+01 -1.291627563882446E+01 -2.449787619871786E-01
   2.517600029824582E-03  2.814482033796632E-03 -2.216129390912824E-05
2451849.500000000 = A.D. 2000-Nov-01 00:00:00.0000 TDB 
   1.521636273737875E+01 -1.290219721141826E+01 -2.450894541822246E-01
   2.514763731089252E-03  2.816888462204897E-03 -2.211558120746941E-05
2451854.500000000 = A.D. 2000-Nov-06 00:00:00.0000 TDB 
   1.522892946081907E+01 -1.288810675886845E+01 -2.451999177702715E-01
   2.511925287842371E-03  2.819292090985422E-03 -2.206985111692149E-05
2451859.500000000 = A.D. 2000-Nov-11 00:00:00.0000 TDB 
   1.524148198668740E+01 -1.287400429517699E+01 -2.453101526644794E-01
   2.509084702728572E-03  2.821692918617004E-03 -2.202410367824516E-05
2451864.500000000 = A.D. 2000-Nov-16 00:00:00.0000 TDB 
   1.525402030428100E+01 -1.285988983435340E+01 -2.454201587782076E-01
   2.506241978394299E-03  2.824090943579900E-03 -2.197833893206806E-05
2451869.500000000 = A.D. 2000-Nov-21 00:00:00.0000 TDB 
   1.526654440291038E+01 -1.284576339041483E+01 -2.455299360250210E-01
   2.503397117486368E-03  2.826486164355570E-03 -2.193255691902122E-05
2451874.500000000 = A.D. 2000-Nov-26 00:00:00.0000 TDB 
   1.527905427189932E+01 -1.283162497738602E+01 -2.456394843186875E-01
   2.500550122652274E-03  2.828878579427230E-03 -2.188675767979669E-05
2451879.500000000 = A.D. 2000-Dec-01 00:00:00.0000 TDB 
   1.529154990058478E+01 -1.281747460929926E+01 -2.457488035731770E-01
   2.497700996540143E-03  2.831268187279884E-03 -2.184094125508613E-05
2451884.500000000 = A.D. 2000-Dec-06 00:00:00.0000 TDB 
   1.530403127831700E+01 -1.280331230019444E+01 -2.458578937026638E-01
   2.494849741798742E-03  2.833654986400319E-03 -2.179510768558121E-05
2451889.500000000 = A.D. 2000-Dec-11 00:00:00.0000 TDB 
   1.531649839445947E+01 -1.278913806411900E+01 -2.459667546215265E-01
   2.491996361077391E-03  2.836038975277223E-03 -2.174925701197538E-05
2451894.500000000 = A.D. 2000-Dec-16 00:00:00.0000 TDB 
   1.532895123838889E+01 -1.277495191512792E+01 -2.460753862443458E-01
   2.489140857026739E-03  2.838420152401892E-03 -2.170338927498995E-05
2451899.500000000 = A.D. 2000-Dec-21 00:00:00.0000 TDB 
   1.534138979949527E+01 -1.276075386728374E+01 -2.461837884859050E-01
   2.486283232298336E-03  2.840798516267339E-03 -2.165750451543134E-05
2451904.500000000 = A.D. 2000-Dec-26 00:00:00.0000 TDB 
   1.535381406718184E+01 -1.274654393465652E+01 -2.462919612611971E-01
   2.483423489544197E-03  2.843174065368796E-03 -2.161160277412345E-05
2451909.500000000 = A.D. 2000-Dec-31 00:00:00.0000 TDB 
   1.536622403086509E+01 -1.273232213132384E+01 -2.463999044854116E-01
   2.480561631417906E-03  2.845546798203289E-03 -2.156568409187156E-05
2451914.500000000 = A.D. 2001-Jan-05 00:00:00.0000 TDB 
   1.537861967997482E+01 -1.271808847137077E+01 -2.465076180739486E-01
   2.477697660574615E-03  2.847916713269636E-03 -2.151974850946019E-05
2451919.500000000 = A.D. 2001-Jan-10 00:00:00.0000 TDB 
   1.539100100395407E+01 -1.270384296888992E+01 -2.466151019424074E-01
   2.474831579671045E-03  2.850283809068449E-03 -2.147379606765640E-05
2451924.500000000 = A.D. 2001-Jan-15 00:00:00.0000 TDB 
   1.540336799225919E+01 -1.268958563798136E+01 -2.467223560065952E-01
   2.471963391365180E-03  2.852648084101740E-03 -2.142782680735116E-05
2451929.500000000 = A.D. 2001-Jan-20 00:00:00.0000 TDB 
   1.541572063435981E+01 -1.267531649275267E+01 -2.468293801825185E-01
   2.469093098315999E-03  2.855009536873124E-03 -2.138184076962636E-05
2451934.500000000 = A.D. 2001-Jan-25 00:00:00.0000 TDB 
   1.542805891973888E+01 -1.266103554731889E+01 -2.469361743863965E-01
   2.466220703184259E-03  2.857368165887667E-03 -2.133583799528203E-05
2451939.500000000 = A.D. 2001-Jan-30 00:00:00.0000 TDB 
   1.544038283789262E+01 -1.264674281580254E+01 -2.470427385346460E-01
   2.463346208632082E-03  2.859723969651714E-03 -2.128981852516297E-05
2451944.500000000 = A.D. 2001-Feb-04 00:00:00.0000 TDB 
   1.545269237833060E+01 -1.263243831233361E+01 -2.471490725438902E-01
   2.460469617322943E-03  2.862076946672938E-03 -2.124378240017371E-05
2451949.500000000 = A.D. 2001-Feb-09 00:00:00.0000 TDB 
   1.546498753057570E+01 -1.261812205104954E+01 -2.472551763309580E-01
   2.457590931921670E-03  2.864427095460336E-03 -2.119772966127870E-05
2451954.500000000 = A.D. 2001-Feb-14 00:00:00.0000 TDB 
   1.547726828416411E+01 -1.260379404609521E+01 -2.473610498128815E-01
   2.454710155094662E-03  2.866774414524060E-03 -2.115166034943391E-05
2451959.500000000 = A.D. 2001-Feb-19 00:00:00.0000 TDB 
   1.548953462864538E+01 -1.258945431162298E+01 -2.474666929068981E-01
   2.451827289509234E-03  2.869118902374998E-03 -2.110557450546667E-05
